GLOBALSTAR M066         
1 32265U 07048C   26191.37890084 -.00000052  00000+0  35917-3 0  9990
2 32265  51.9609 351.3363 0005638  92.3018 275.3096 12.30389006863088
GLOBALSTAR M079         
1 37188U 10054A   26191.99306316 -.00000105  00000+0 -51880-5 0  9997
2 37188  52.0049  36.2015 0001104  70.5426  92.4516 12.62266407725553
GLOBALSTAR M074         
1 37189U 10054B   26190.35881330 -.00000102  00000+0  11849-4 0  9997
2 37189  52.0028  40.4384 0000857  84.4744  88.6853 12.62262010725959
GLOBALSTAR M076         
1 37190U 10054C   26192.04652259 -.00000093  00000+0  59652-4 0  9996
2 37190  52.0040  35.5057 0001093  83.6838  82.2987 12.62262183725886
GLOBALSTAR M077         
1 37191U 10054D   26192.20560847 -.00000090  00000+0 -21220-3 0  9993
2 37191  51.9950 118.3324 0002340 217.9588 313.2859 11.67547721723940
GLOBALSTAR M075         
1 37192U 10054E   26192.05379315 -.00000106  00000+0 -10614-4 0  9999
2 37192  51.9948  77.5243 0000683  58.6019  80.8642 12.62267784724954
GLOBALSTAR M073         
1 37193U 10054F   26191.47653948 -.00000102  00000+0  88235-5 0  9992
2 37193  52.0079 353.4002 0001097  89.7684 303.6426 12.62266868726875
GLOBALSTAR M083         
1 37739U 11033A   26191.33107273 -.00000095  00000+0  51452-4 0  9997
2 37739  51.9874 302.0412 0000856 100.5329 292.8364 12.62263969695871
GLOBALSTAR M088         
1 37740U 11033B   26192.01513734 -.00000076  00000+0  15635-3 0  9999
2 37740  52.0186 206.4427 0000123 160.3371 221.6846 12.62269398691505
GLOBALSTAR M091         
1 37741U 11033C   26191.00263122 -.00000088  00000+0  88008-4 0  9999
2 37741  51.9972 172.4544 0000294  11.2117  28.2560 12.62264222692168
GLOBALSTAR M085         
1 37742U 11033D   26192.20099171 -.00000111  00000+0 -38071-4 0  9997
2 37742  52.0121 120.1192 0000698  34.1760 113.4988 12.62264330692826
GLOBALSTAR M081         
1 37743U 11033E   26192.22764943 -.00000119  00000+0 -82877-4 0  9997
2 37743  51.9951 122.4468 0000588  49.7130  98.9747 12.62265342692978
GLOBALSTAR M089         
1 37744U 11033F   26192.10899895 -.00000110  00000+0 -37333-4 0  9998
2 37744  51.9932  76.9626 0000665  85.2552  65.0707 12.62267544693806
GLOBALSTAR M084         
1 38040U 11080A   26190.52310642 -.00000099  00000+0  28810-4 0  9997
2 38040  52.0029 309.2852 0000958 121.3688 318.8064 12.62267846671586
GLOBALSTAR M080         
1 38041U 11080B   26191.35546861 -.00000104  00000+0 -32632-5 0  9990
2 38041  52.0075 308.4773 0000310  81.3968 312.9165 12.62257300671816
GLOBALSTAR M082         
1 38042U 11080C   26192.24214505 -.00000083  00000+0  11824-3 0  9990
2 38042  52.0064 261.2826 0000238 107.4799 287.8016 12.62264035672630
GLOBALSTAR M092         
1 38043U 11080D   26192.07289649 -.00000089  00000+0  80289-4 0  9991
2 38043  52.0103 352.1943 0000819  96.8496   8.2776 12.62267680671068
GLOBALSTAR M090         
1 38044U 11080E   26191.23949641 -.00000081  00000+0  12812-3 0  9992
2 38044  52.0114 258.2983 0000451 107.2704 288.2798 12.62253056672621
GLOBALSTAR M086         
1 38045U 11080F   26192.20689402 -.00000084  00000+0  11173-3 0  9999
2 38045  51.9883 255.2431 0001597 105.9446 271.2032 12.62287709672690
GLOBALSTAR M097         
1 39072U 13005A   26190.65118117 -.00000088  00000+0  87071-4 0  9991
2 39072  52.0021 174.9530 0000293  35.0733 325.0154 12.62271423619744
GLOBALSTAR M093         
1 39073U 13005B   26191.97052080 -.00000096  00000+0  41927-4 0  9993
2 39073  52.0085 164.2923 0000542  38.1620 321.9285 12.62266326619868
GLOBALSTAR M094         
1 39074U 13005C   26192.04955463 -.00000111  00000+0 -38945-4 0  9995
2 39074  51.9959  78.1454 0000910  56.7753 303.3201 12.62264145621481
GLOBALSTAR M096         
1 39075U 13005D   26191.19205918 -.00000106  00000+0 -12180-4 0  9991
2 39075  52.0063 129.5750 0000628  32.6639 327.4266 12.62265688620291
GLOBALSTAR M078         
1 39076U 13005E   26192.03619826 -.00000080  00000+0  13027-3 0  9993
2 39076  51.9844 210.9839 0000739 325.2707  34.8111 12.62260093619022
GLOBALSTAR M095         
1 39077U 13005F   26192.06288755 -.00000076  00000+0  15698-3 0  9991
2 39077  52.0055 208.5404 0000328   5.5993 354.4877 12.62264130618888
GLOBALSTAR M087         
1 52888U 22064A   26191.36336234 -.00000102  00000+0  12545-4 0  9998
2 52888  52.0015 351.8941 0000947  78.4591 281.6382 12.62269291194061
